GLOBALSTAR M084         
1 38040U 11080A   26019.15678411 -.00000100  00000+0  18483-4 0  9995
2 38040  52.0007 110.9848 0001024 124.2088 261.2109 12.62267092649944
GLOBALSTAR M080         
1 38041U 11080B   26019.28870279 -.00000101  00000+0  16485-4 0  9997
2 38041  52.0058 112.2501 0000314 115.8500 279.0366 12.62265434650085
GLOBALSTAR M082         
1 38042U 11080C   26019.31395073 -.00000078  00000+0  14372-3 0  9991
2 38042  52.0082  67.6585 0000159 110.0235 329.4172 12.62266766650799
GLOBALSTAR M092         
1 38043U 11080D   26019.14937598 -.00000116  00000+0 -65698-4 0  9999
2 38043  52.0070 158.5469 0000957 103.5870  67.5560 12.62269448649223
GLOBALSTAR M090         
1 38044U 11080E   26019.34141473 -.00000080  00000+0  13166-3 0  9992
2 38044  52.0131  61.4833 0000434 100.8075 342.2668 12.62265936650914
GLOBALSTAR M086         
1 38045U 11080F   26019.28521600 -.00000080  00000+0  13390-3 0  9999
2 38045  51.9904  61.8264 0001501  89.1008 350.4612 12.62282177650853
GLOBALSTAR M097         
1 39072U 13005A   26019.29627401 -.00000102  00000+0  10785-4 0  9997
2 39072  52.0071 336.5727 0000609  56.6828 303.4097 12.62268163598107
GLOBALSTAR M093         
1 39073U 13005B   26019.11172801 -.00000091  00000+0  69489-4 0  9990
2 39073  52.0128 330.4259 0000822  42.9319 317.1612 12.62271698598038
